{"type": "FeatureCollection", "features": [{"type": "Feature", "id": "DYFI.UTM:(10S 063 427 10000)", "properties": {"code": "UTM:(10S 063 427 10000)", "name": null, "instrumentType": "OBSERVED", "source": "DYFI", "network": "DYFI", "commType": "UNK", "location": "", "intensity": 2.8, "intensity_flag": "0", "intensity_stddev": 0.3, "pga": "null", "pgv": "null", "distance": 391.115, "elev": null, "vs30": 760.0, "channels": [], "nresp": 7, "station_type": "macroseismic", "predictions": [{"name": "mmi", "value": 1.0, "value_rock": 1.0, "value_soil": 1.0, "units": "intensity", "tau": 0.3479, "phi": 0.8834, "sigma": 0.9494, "sigma_rock": 0.9496, "sigma_soil": 0.9375, "bias": -0.0027, "bias_sigma": 0.1649}, {"name": "pga", "value": 0.002, "value_rock": 0.002, "value_soil": 0.0039, "units": "%g", "ln_tau": 0.4156, "ln_phi": 0.713, "ln_sigma": 0.8252, "ln_sigma_rock": 0.8262, "ln_sigma_soil": 0.8108, "ln_bias": 0.0603, "ln_bias_sigma": 0.136}, {"name": "sa(0.3)", "value": 0.0064, "value_rock": 0.0064, "value_soil": 0.0211, "units": "%g", "ln_tau": 0.3978, "ln_phi": 0.7382, "ln_sigma": 0.8385, "ln_sigma_rock": 0.8409, "ln_sigma_soil": 0.8295, "ln_bias": -0.1245, "ln_bias_sigma": 0.1374}, {"name": "sa(1.0)", "value": 0.0045, "value_rock": 0.0045, "value_soil": 0.0194, "units": "%g", "ln_tau": 0.4633, "ln_phi": 0.6401, "ln_sigma": 0.7902, "ln_sigma_rock": 0.7903, "ln_sigma_soil": 0.7864, "ln_bias": -0.0914, "ln_bias_sigma": 0.1287}, {"name": "sa(3.0)", "value": 0.0007, "value_rock": 0.0007, "value_soil": 0.0029, "units": "%g", "ln_tau": 0.4834, "ln_phi": 0.5927, "ln_sigma": 0.7649, "ln_sigma_rock": 0.7652, "ln_sigma_soil": 0.7652, "ln_bias": -0.1701, "ln_bias_sigma": 0.1244}, {"name": "pgv", "value": 0.0036, "value_rock": 0.0036, "value_soil": 0.0105, "units": "cm/s", "ln_tau": 0.3692, "ln_phi": 0.6571, "ln_sigma": 0.7537, "ln_sigma_rock": 0.7539, "ln_sigma_soil": 0.7367, "ln_bias": -0.1169, "ln_bias_sigma": 0.1295}], "pgm_from_mmi": [{"name": "sa(3.0)", "value": null, "units": "%g", "ln_sigma": null, "flag": "0"}, {"name": "pga", "value": null, "units": "%g", "ln_sigma": null, "flag": "0"}, {"name": "sa(1.0)", "value": null, "units": "%g", "ln_sigma": null, "flag": "0"}, {"name": "sa(0.3)", "value": null, "units": "%g", "ln_sigma": null, "flag": "0"}, {"name": "pgv", "value": null, "units": "cm/s", "ln_sigma": null, "flag": "0"}], "distance_stddev": 1.74, "distances": {"repi": 392.945, "rhypo": 393.073, "rjb": 391.292, "rjb_var": 2.385, "rrup": 391.115, "rrup_var": 3.028, "rx": 0.0, "ry0": 0.0}}, "geometry": {"type": "Point", "coordinates": [-121.4494, 38.6132]}}, {"type": "Feature", "id": "DYFI.UTM:(10S 065 422 10000)", "properties": {"code": "UTM:(10S 065 422 10000)", "name": null, "instrumentType": "OBSERVED", "source": "DYFI", "network": "DYFI", "commType": "UNK", "location": "", "intensity": 2.4, "intensity_flag": "0", "intensity_stddev": 0.3, "pga": "null", "pgv": "null", "distance": 347.02, "elev": null, "vs30": 760.0, "channels": [], "nresp": 3, "station_type": "macroseismic", "predictions": [{"name": "mmi", "value": 1.0, "value_rock": 1.0, "value_soil": 1.0, "units": "intensity", "tau": 0.3479, "phi": 0.8834, "sigma": 0.9495, "sigma_rock": 0.9496, "sigma_soil": 0.9375, "bias": -0.0027, "bias_sigma": 0.1649}, {"name": "pga", "value": 0.0033, "value_rock": 0.0033, "value_soil": 0.0065, "units": "%g", "ln_tau": 0.4156, "ln_phi": 0.713, "ln_sigma": 0.8252, "ln_sigma_rock": 0.8262, "ln_sigma_soil": 0.8108, "ln_bias": 0.0603, "ln_bias_sigma": 0.136}, {"name": "sa(0.3)", "value": 0.0098, "value_rock": 0.0098, "value_soil": 0.0322, "units": "%g", "ln_tau": 0.3978, "ln_phi": 0.7382, "ln_sigma": 0.8386, "ln_sigma_rock": 0.8409, "ln_sigma_soil": 0.8295, "ln_bias": -0.1245, "ln_bias_sigma": 0.1374}, {"name": "sa(1.0)", "value": 0.0057, "value_rock": 0.0057, "value_soil": 0.0246, "units": "%g", "ln_tau": 0.4633, "ln_phi": 0.6401, "ln_sigma": 0.7902, "ln_sigma_rock": 0.7903, "ln_sigma_soil": 0.7863, "ln_bias": -0.0914, "ln_bias_sigma": 0.1287}, {"name": "sa(3.0)", "value": 0.0008, "value_rock": 0.0008, "value_soil": 0.0035, "units": "%g", "ln_tau": 0.4834, "ln_phi": 0.5927, "ln_sigma": 0.7649, "ln_sigma_rock": 0.7652, "ln_sigma_soil": 0.7652, "ln_bias": -0.1701, "ln_bias_sigma": 0.1244}, {"name": "pgv", "value": 0.0049, "value_rock": 0.0049, "value_soil": 0.0142, "units": "cm/s", "ln_tau": 0.3692, "ln_phi": 0.6571, "ln_sigma": 0.7537, "ln_sigma_rock": 0.7539, "ln_sigma_soil": 0.7368, "ln_bias": -0.1169, "ln_bias_sigma": 0.1295}], "pgm_from_mmi": [{"name": "sa(3.0)", "value": null, "units": "%g", "ln_sigma": null, "flag": "0"}, {"name": "pga", "value": null, "units": "%g", "ln_sigma": null, "flag": "0"}, {"name": "sa(1.0)", "value": null, "units": "%g", "ln_sigma": null, "flag": "0"}, {"name": "sa(0.3)", "value": null, "units": "%g", "ln_sigma": null, "flag": "0"}, {"name": "pgv", "value": null, "units": "cm/s", "ln_sigma": null, "flag": "0"}], "distance_stddev": 1.745, "distances": {"repi": 348.827, "rhypo": 348.97, "rjb": 347.174, "rjb_var": 2.384, "rrup": 347.02, "rrup_var": 3.044, "rx": 0.0, "ry0": 0.0}}, "geometry": {"type": "Point", "coordinates": [-121.2308, 38.1596]}}, {"type": "Feature", "id": "DYFI.UTM:(10S 067 416 10000)", "properties": {"code": "UTM:(10S 067 416 10000)", "name": null, "instrumentType": "OBSERVED", "source": "DYFI", "network": "DYFI", "commType": "UNK", "location": "", "intensity": 3.2, "intensity_flag": "0", "intensity_stddev": 0.3, "pga": "null", "pgv": "null", "distance": 302.009, "elev": null, "vs30": 760.0, "channels": [], "nresp": 5, "station_type": "macroseismic", "predictions": [{"name": "mmi", "value": 1.0, "value_rock": 1.0, "value_soil": 1.0, "units": "intensity", "tau": 0.3479, "phi": 0.8834, "sigma": 0.9495, "sigma_rock": 0.9496, "sigma_soil": 0.9375, "bias": -0.0027, "bias_sigma": 0.1649}, {"name": "pga", "value": 0.0057, "value_rock": 0.0057, "value_soil": 0.0112, "units": "%g", "ln_tau": 0.4156, "ln_phi": 0.713, "ln_sigma": 0.8253, "ln_sigma_rock": 0.8262, "ln_sigma_soil": 0.8108, "ln_bias": 0.0603, "ln_bias_sigma": 0.136}, {"name": "sa(0.3)", "value": 0.0154, "value_rock": 0.0154, "value_soil": 0.0507, "units": "%g", "ln_tau": 0.3978, "ln_phi": 0.7382, "ln_sigma": 0.8386, "ln_sigma_rock": 0.8409, "ln_sigma_soil": 0.8295, "ln_bias": -0.1245, "ln_bias_sigma": 0.1374}, {"name": "sa(1.0)", "value": 0.0074, "value_rock": 0.0074, "value_soil": 0.0319, "units": "%g", "ln_tau": 0.4633, "ln_phi": 0.6401, "ln_sigma": 0.7902, "ln_sigma_rock": 0.7903, "ln_sigma_soil": 0.7863, "ln_bias": -0.0914, "ln_bias_sigma": 0.1287}, {"name": "sa(3.0)", "value": 0.001, "value_rock": 0.001, "value_soil": 0.0043, "units": "%g", "ln_tau": 0.4834, "ln_phi": 0.5927, "ln_sigma": 0.7649, "ln_sigma_rock": 0.7652, "ln_sigma_soil": 0.7652, "ln_bias": -0.1701, "ln_bias_sigma": 0.1244}, {"name": "pgv", "value": 0.0068, "value_rock": 0.0068, "value_soil": 0.0197, "units": "cm/s", "ln_tau": 0.3692, "ln_phi": 0.6572, "ln_sigma": 0.7537, "ln_sigma_rock": 0.7539, "ln_sigma_soil": 0.7368, "ln_bias": -0.1169, "ln_bias_sigma": 0.1295}], "pgm_from_mmi": [{"name": "sa(3.0)", "value": null, "units": "%g", "ln_sigma": null, "flag": "0"}, {"name": "pga", "value": null, "units": "%g", "ln_sigma": null, "flag": "0"}, {"name": "sa(1.0)", "value": null, "units": "%g", "ln_sigma": null, "flag": "0"}, {"name": "sa(0.3)", "value": null, "units": "%g", "ln_sigma": null, "flag": "0"}, {"name": "pgv", "value": null, "units": "cm/s", "ln_sigma": null, "flag": "0"}], "distance_stddev": 1.75, "distances": {"repi": 303.79, "rhypo": 303.955, "rjb": 302.138, "rjb_var": 2.383, "rrup": 302.009, "rrup_var": 3.063, "rx": 0.0, "ry0": 0.0}}, "geometry": {"type": "Point", "coordinates": [-121.0172, 37.6154]}}, {"type": "Feature", "id": "DYFI.UTM:(10S 072 413 10000)", "properties": {"code": "UTM:(10S 072 413 10000)", "name": null, "instrumentType": "OBSERVED", "source": "DYFI", "network": "DYFI", "commType": "UNK", "location": "", "intensity": 2.2, "intensity_flag": "0", "intensity_stddev": 0.3, "pga": "null", "pgv": "null", "distance": 244.551, "elev": null, "vs30": 760.0, "channels": [], "nresp": 5, "station_type": "macroseismic", "predictions": [{"name": "mmi", "value": 1.0, "value_rock": 1.0, "value_soil": 1.4238, "units": "intensity", "tau": 0.3479, "phi": 0.882, "sigma": 0.9481, "sigma_rock": 0.9482, "sigma_soil": 0.9362, "bias": -0.0027, "bias_sigma": 0.1649}, {"name": "pga", "value": 0.0118, "value_rock": 0.0118, "value_soil": 0.0234, "units": "%g", "ln_tau": 0.4156, "ln_phi": 0.7103, "ln_sigma": 0.8229, "ln_sigma_rock": 0.8238, "ln_sigma_soil": 0.8084, "ln_bias": 0.0603, "ln_bias_sigma": 0.136}, {"name": "sa(0.3)", "value": 0.0286, "value_rock": 0.0286, "value_soil": 0.0938, "units": "%g", "ln_tau": 0.3978, "ln_phi": 0.7349, "ln_sigma": 0.8357, "ln_sigma_rock": 0.8379, "ln_sigma_soil": 0.8264, "ln_bias": -0.1245, "ln_bias_sigma": 0.1374}, {"name": "sa(1.0)", "value": 0.0107, "value_rock": 0.0107, "value_soil": 0.0461, "units": "%g", "ln_tau": 0.4633, "ln_phi": 0.6373, "ln_sigma": 0.7879, "ln_sigma_rock": 0.7881, "ln_sigma_soil": 0.7841, "ln_bias": -0.0914, "ln_bias_sigma": 0.1287}, {"name": "sa(3.0)", "value": 0.0014, "value_rock": 0.0014, "value_soil": 0.0059, "units": "%g", "ln_tau": 0.4834, "ln_phi": 0.5928, "ln_sigma": 0.7649, "ln_sigma_rock": 0.7652, "ln_sigma_soil": 0.7652, "ln_bias": -0.1701, "ln_bias_sigma": 0.1244}, {"name": "pgv", "value": 0.0108, "value_rock": 0.0108, "value_soil": 0.0312, "units": "cm/s", "ln_tau": 0.3692, "ln_phi": 0.6549, "ln_sigma": 0.7518, "ln_sigma_rock": 0.752, "ln_sigma_soil": 0.7348, "ln_bias": -0.1169, "ln_bias_sigma": 0.1295}], "pgm_from_mmi": [{"name": "sa(3.0)", "value": null, "units": "%g", "ln_sigma": null, "flag": "0"}, {"name": "pga", "value": null, "units": "%g", "ln_sigma": null, "flag": "0"}, {"name": "sa(1.0)", "value": null, "units": "%g", "ln_sigma": null, "flag": "0"}, {"name": "sa(0.3)", "value": null, "units": "%g", "ln_sigma": null, "flag": "0"}, {"name": "pgv", "value": null, "units": "cm/s", "ln_sigma": null, "flag": "0"}], "distance_stddev": 1.761, "distances": {"repi": 246.284, "rhypo": 246.487, "rjb": 244.633, "rjb_var": 2.381, "rrup": 244.551, "rrup_var": 3.099, "rx": 0.0, "ry0": 0.0}}, "geometry": {"type": "Point", "coordinates": [-120.4603, 37.3344]}}, {"type": "Feature", "id": "DYFI.UTM:(10S 076 409 10000)", "properties": {"code": "UTM:(10S 076 409 10000)", "name": null, "instrumentType": "OBSERVED", "source": "DYFI", "network": "DYFI", "commType": "UNK", "location": "", "intensity": 3.0, "intensity_flag": "0", "intensity_stddev": 0.3, "pga": "null", "pgv": "null", "distance": 194.378, "elev": null, "vs30": 760.0, "channels": [], "nresp": 4, "station_type": "macroseismic", "predictions": [{"name": "mmi", "value": 1.0, "value_rock": 1.0, "value_soil": 1.8516, "units": "intensity", "tau": 0.3479, "phi": 0.8788, "sigma": 0.9451, "sigma_rock": 0.9453, "sigma_soil": 0.9333, "bias": -0.0027, "bias_sigma": 0.1649}, {"name": "pga", "value": 0.0235, "value_rock": 0.0235, "value_soil": 0.0467, "units": "%g", "ln_tau": 0.4156, "ln_phi": 0.704, "ln_sigma": 0.8175, "ln_sigma_rock": 0.8183, "ln_sigma_soil": 0.8028, "ln_bias": 0.0603, "ln_bias_sigma": 0.136}, {"name": "sa(0.3)", "value": 0.0515, "value_rock": 0.0515, "value_soil": 0.1688, "units": "%g", "ln_tau": 0.3978, "ln_phi": 0.7267, "ln_sigma": 0.8285, "ln_sigma_rock": 0.8304, "ln_sigma_soil": 0.8188, "ln_bias": -0.1245, "ln_bias_sigma": 0.1374}, {"name": "sa(1.0)", "value": 0.0156, "value_rock": 0.0156, "value_soil": 0.0668, "units": "%g", "ln_tau": 0.4633, "ln_phi": 0.6307, "ln_sigma": 0.7826, "ln_sigma_rock": 0.7828, "ln_sigma_soil": 0.7788, "ln_bias": -0.0914, "ln_bias_sigma": 0.1287}, {"name": "sa(3.0)", "value": 0.0019, "value_rock": 0.0019, "value_soil": 0.0081, "units": "%g", "ln_tau": 0.4834, "ln_phi": 0.5926, "ln_sigma": 0.7648, "ln_sigma_rock": 0.7651, "ln_sigma_soil": 0.7651, "ln_bias": -0.1701, "ln_bias_sigma": 0.1244}, {"name": "pgv", "value": 0.017, "value_rock": 0.017, "value_soil": 0.0491, "units": "cm/s", "ln_tau": 0.3692, "ln_phi": 0.6501, "ln_sigma": 0.7476, "ln_sigma_rock": 0.7478, "ln_sigma_soil": 0.7307, "ln_bias": -0.1169, "ln_bias_sigma": 0.1295}], "pgm_from_mmi": [{"name": "sa(3.0)", "value": null, "units": "%g", "ln_sigma": null, "flag": "0"}, {"name": "pga", "value": null, "units": "%g", "ln_sigma": null, "flag": "0"}, {"name": "sa(1.0)", "value": null, "units": "%g", "ln_sigma": null, "flag": "0"}, {"name": "sa(0.3)", "value": null, "units": "%g", "ln_sigma": null, "flag": "0"}, {"name": "pgv", "value": null, "units": "cm/s", "ln_sigma": null, "flag": "0"}], "distance_stddev": 1.776, "distances": {"repi": 196.043, "rhypo": 196.298, "rjb": 194.395, "rjb_var": 2.378, "rrup": 194.378, "rrup_var": 3.154, "rx": 0.0, "ry0": 0.0}}, "geometry": {"type": "Point", "coordinates": [-120.0234, 36.9638]}}, {"type": "Feature", "id": "DYFI.UTM:(11S 024 407 10000)", "properties": {"code": "UTM:(11S 024 407 10000)", "name": null, "instrumentType": "OBSERVED", "source": "DYFI", "network": "DYFI", "commType": "UNK", "location": "", "intensity": 2.9, "intensity_flag": "0", "intensity_stddev": 0.3, "pga": "null", "pgv": "null", "distance": 175.413, "elev": null, "vs30": 760.0, "channels": [], "nresp": 14, "station_type": "macroseismic", "predictions": [{"name": "mmi", "value": 1.0342, "value_rock": 1.0342, "value_soil": 2.0313, "units": "intensity", "tau": 0.3479, "phi": 0.8773, "sigma": 0.9438, "sigma_rock": 0.9439, "sigma_soil": 0.9321, "bias": -0.0027, "bias_sigma": 0.1649}, {"name": "pga", "value": 0.0311, "value_rock": 0.0311, "value_soil": 0.0617, "units": "%g", "ln_tau": 0.4156, "ln_phi": 0.7012, "ln_sigma": 0.8151, "ln_sigma_rock": 0.8158, "ln_sigma_soil": 0.8003, "ln_bias": 0.0603, "ln_bias_sigma": 0.136}, {"name": "sa(0.3)", "value": 0.0654, "value_rock": 0.0654, "value_soil": 0.2145, "units": "%g", "ln_tau": 0.3978, "ln_phi": 0.7231, "ln_sigma": 0.8253, "ln_sigma_rock": 0.8271, "ln_sigma_soil": 0.8155, "ln_bias": -0.1245, "ln_bias_sigma": 0.1374}, {"name": "sa(1.0)", "value": 0.0183, "value_rock": 0.0183, "value_soil": 0.0783, "units": "%g", "ln_tau": 0.4633, "ln_phi": 0.6278, "ln_sigma": 0.7802, "ln_sigma_rock": 0.7805, "ln_sigma_soil": 0.7765, "ln_bias": -0.0914, "ln_bias_sigma": 0.1287}, {"name": "sa(3.0)", "value": 0.0022, "value_rock": 0.0022, "value_soil": 0.0093, "units": "%g", "ln_tau": 0.4834, "ln_phi": 0.5871, "ln_sigma": 0.7605, "ln_sigma_rock": 0.7609, "ln_sigma_soil": 0.7609, "ln_bias": -0.1701, "ln_bias_sigma": 0.1244}, {"name": "pgv", "value": 0.0206, "value_rock": 0.0206, "value_soil": 0.0594, "units": "cm/s", "ln_tau": 0.3692, "ln_phi": 0.6479, "ln_sigma": 0.7457, "ln_sigma_rock": 0.7459, "ln_sigma_soil": 0.7289, "ln_bias": -0.1169, "ln_bias_sigma": 0.1295}], "pgm_from_mmi": [{"name": "sa(3.0)", "value": null, "units": "%g", "ln_sigma": null, "flag": "0"}, {"name": "pga", "value": null, "units": "%g", "ln_sigma": null, "flag": "0"}, {"name": "sa(1.0)", "value": null, "units": "%g", "ln_sigma": null, "flag": "0"}, {"name": "sa(0.3)", "value": null, "units": "%g", "ln_sigma": null, "flag": "0"}, {"name": "pgv", "value": null, "units": "cm/s", "ln_sigma": null, "flag": "0"}], "distance_stddev": 1.785, "distances": {"repi": 177.039, "rhypo": 177.321, "rjb": 175.392, "rjb_var": 2.376, "rrup": 175.413, "rrup_var": 3.185, "rx": 0.0, "ry0": 0.0}}, "geometry": {"type": "Point", "coordinates": [-119.8576, 36.7865]}}, {"type": "Feature", "id": "DYFI.UTM:(11S 025 406 10000)", "properties": {"code": "UTM:(11S 025 406 10000)", "name": null, "instrumentType": "OBSERVED", "source": "DYFI", "network": "DYFI", "commType": "UNK", "location": "", "intensity": 3.2, "intensity_flag": "0", "intensity_stddev": 0.3, "pga": "null", "pgv": "null", "distance": 163.642, "elev": null, "vs30": 760.0, "channels": [], "nresp": 18, "station_type": "macroseismic", "predictions": [{"name": "mmi", "value": 1.1524, "value_rock": 1.1524, "value_soil": 2.1296, "units": "intensity", "tau": 0.3479, "phi": 0.8764, "sigma": 0.9429, "sigma_rock": 0.9431, "sigma_soil": 0.7827, "bias": -0.0027, "bias_sigma": 0.1649}, {"name": "pga", "value": 0.0373, "value_rock": 0.0373, "value_soil": 0.074, "units": "%g", "ln_tau": 0.4156, "ln_phi": 0.6994, "ln_sigma": 0.8135, "ln_sigma_rock": 0.8141, "ln_sigma_soil": 0.7986, "ln_bias": 0.0603, "ln_bias_sigma": 0.136}, {"name": "sa(0.3)", "value": 0.0764, "value_rock": 0.0764, "value_soil": 0.2505, "units": "%g", "ln_tau": 0.3978, "ln_phi": 0.7206, "ln_sigma": 0.8232, "ln_sigma_rock": 0.8249, "ln_sigma_soil": 0.8132, "ln_bias": -0.1245, "ln_bias_sigma": 0.1374}, {"name": "sa(1.0)", "value": 0.0203, "value_rock": 0.0203, "value_soil": 0.0869, "units": "%g", "ln_tau": 0.4633, "ln_phi": 0.6258, "ln_sigma": 0.7786, "ln_sigma_rock": 0.7789, "ln_sigma_soil": 0.7749, "ln_bias": -0.0914, "ln_bias_sigma": 0.1287}, {"name": "sa(3.0)", "value": 0.0024, "value_rock": 0.0024, "value_soil": 0.0102, "units": "%g", "ln_tau": 0.4834, "ln_phi": 0.5834, "ln_sigma": 0.7576, "ln_sigma_rock": 0.758, "ln_sigma_soil": 0.758, "ln_bias": -0.1701, "ln_bias_sigma": 0.1244}, {"name": "pgv", "value": 0.0234, "value_rock": 0.0234, "value_soil": 0.0673, "units": "cm/s", "ln_tau": 0.3692, "ln_phi": 0.6465, "ln_sigma": 0.7444, "ln_sigma_rock": 0.7446, "ln_sigma_soil": 0.7276, "ln_bias": -0.1169, "ln_bias_sigma": 0.1295}], "pgm_from_mmi": [{"name": "sa(3.0)", "value": null, "units": "%g", "ln_sigma": null, "flag": "0"}, {"name": "pga", "value": null, "units": "%g", "ln_sigma": null, "flag": "0"}, {"name": "sa(1.0)", "value": null, "units": "%g", "ln_sigma": null, "flag": "0"}, {"name": "sa(0.3)", "value": null, "units": "%g", "ln_sigma": null, "flag": "0"}, {"name": "pgv", "value": null, "units": "cm/s", "ln_sigma": null, "flag": "0"}], "distance_stddev": 1.79, "distances": {"repi": 165.244, "rhypo": 165.546, "rjb": 163.597, "rjb_var": 2.375, "rrup": 163.642, "rrup_var": 3.205, "rx": 0.0, "ry0": 0.0}}, "geometry": {"type": "Point", "coordinates": [-119.7425, 36.6991]}}, {"type": "Feature", "id": "DYFI.UTM:(11S 025 407 10000)", "properties": {"code": "UTM:(11S 025 407 10000)", "name": null, "instrumentType": "OBSERVED", "source": "DYFI", "network": "DYFI", "commType": "UNK", "location": "", "intensity": 3.5, "intensity_flag": "0", "intensity_stddev": 0.3, "pga": "null", "pgv": "null", "distance": 165.735, "elev": null, "vs30": 760.0, "channels": [], "nresp": 22, "station_type": "macroseismic", "predictions": [{"name": "mmi", "value": 1.1309, "value_rock": 1.1309, "value_soil": 2.1151, "units": "intensity", "tau": 0.3479, "phi": 0.8766, "sigma": 0.9431, "sigma_rock": 0.9432, "sigma_soil": 0.7828, "bias": -0.0027, "bias_sigma": 0.1649}, {"name": "pga", "value": 0.0361, "value_rock": 0.0361, "value_soil": 0.0716, "units": "%g", "ln_tau": 0.4156, "ln_phi": 0.6997, "ln_sigma": 0.8138, "ln_sigma_rock": 0.8144, "ln_sigma_soil": 0.7989, "ln_bias": 0.0603, "ln_bias_sigma": 0.136}, {"name": "sa(0.3)", "value": 0.0743, "value_rock": 0.0743, "value_soil": 0.2436, "units": "%g", "ln_tau": 0.3978, "ln_phi": 0.7211, "ln_sigma": 0.8235, "ln_sigma_rock": 0.8253, "ln_sigma_soil": 0.8136, "ln_bias": -0.1245, "ln_bias_sigma": 0.1374}, {"name": "sa(1.0)", "value": 0.0199, "value_rock": 0.0199, "value_soil": 0.0853, "units": "%g", "ln_tau": 0.4633, "ln_phi": 0.6261, "ln_sigma": 0.7789, "ln_sigma_rock": 0.7792, "ln_sigma_soil": 0.7752, "ln_bias": -0.0914, "ln_bias_sigma": 0.1287}, {"name": "sa(3.0)", "value": 0.0024, "value_rock": 0.0024, "value_soil": 0.0101, "units": "%g", "ln_tau": 0.4834, "ln_phi": 0.5841, "ln_sigma": 0.7582, "ln_sigma_rock": 0.7586, "ln_sigma_soil": 0.7586, "ln_bias": -0.1701, "ln_bias_sigma": 0.1244}, {"name": "pgv", "value": 0.0229, "value_rock": 0.0229, "value_soil": 0.0658, "units": "cm/s", "ln_tau": 0.3692, "ln_phi": 0.6467, "ln_sigma": 0.7447, "ln_sigma_rock": 0.7449, "ln_sigma_soil": 0.7278, "ln_bias": -0.1169, "ln_bias_sigma": 0.1295}], "pgm_from_mmi": [{"name": "sa(3.0)", "value": null, "units": "%g", "ln_sigma": null, "flag": "0"}, {"name": "pga", "